[{"CCSDS_OMM_VERS":"2.0","COMMENT":"GENERATED VIA SPACE-TRACK.ORG API","CREATION_DATE":"2023-02-04T17:34:50","ORIGINATOR":"18 SPCS","OBJECT_NAME":"STARLINK-1098","OBJECT_ID":"2020-001D","CENTER_NAME":"EARTH","REF_FRAME":"TEME","TIME_SYSTEM":"UTC","MEAN_ELEMENT_THEORY":"SGP4","EPOCH":"2023-02-04T08:42:13.839552","MEAN_MOTION":"15.06378137","ECCENTRICITY":"0.00016820","INCLINATION":"53.0553","RA_OF_ASC_NODE":"16.3633","ARG_OF_PERICENTER":"84.4414","MEAN_ANOMALY":"275.6766","EPHEMERIS_TYPE":"0","CLASSIFICATION_TYPE":"U","NORAD_CAT_ID":"44917","ELEMENT_SET_NO":"999","REV_AT_EPOCH":"16963","BSTAR":"-0.00020179000000","MEAN_MOTION_DOT":"-0.00003284","MEAN_MOTION_DDOT":"0.0000000000000","SEMIMAJOR_AXIS":"6925.416","PERIOD":"95.594","APOAPSIS":"548.445","PERIAPSIS":"546.116","OBJECT_TYPE":"PAYLOAD","RCS_SIZE":"LARGE","COUNTRY_CODE":"US","LAUNCH_DATE":"2020-01-07","SITE":"AFETR","DECAY_DATE":null,"FILE":"3771952","GP_ID":"224399657","TLE_LINE0":"0 STARLINK-1098","TLE_LINE1":"1 44917U 20001D   23035.36266018 -.00003284  00000-0 -20179-3 0  9994","TLE_LINE2":"2 44917  53.0553  16.3633 0001682  84.4414 275.6766 15.06378137169637"},{"CCSDS_OMM_VERS":"2.0","COMMENT":"GENERATED VIA SPACE-TRACK.ORG API","CREATION_DATE":"2023-02-05T07:56:12","ORIGINATOR":"18 SPCS","OBJECT_NAME":"STARLINK-1098","OBJECT_ID":"2020-001D","CENTER_NAME":"EARTH","REF_FRAME":"TEME","TIME_SYSTEM":"UTC","MEAN_ELEMENT_THEORY":"SGP4","EPOCH":"2023-02-05T05:24:14.878944","MEAN_MOTION":"15.06399845","ECCENTRICITY":"0.00016190","INCLINATION":"53.0561","RA_OF_ASC_NODE":"12.4917","ARG_OF_PERICENTER":"82.4288","MEAN_ANOMALY":"277.6885","EPHEMERIS_TYPE":"0","CLASSIFICATION_TYPE":"U","NORAD_CAT_ID":"44917","ELEMENT_SET_NO":"999","REV_AT_EPOCH":"16976","BSTAR":"0.00060888000000","MEAN_MOTION_DOT":"0.00008799","MEAN_MOTION_DDOT":"0.0000000000000","SEMIMAJOR_AXIS":"6925.349","PERIOD":"95.592","APOAPSIS":"548.335","PERIAPSIS":"546.093","OBJECT_TYPE":"PAYLOAD","RCS_SIZE":"LARGE","COUNTRY_CODE":"US","LAUNCH_DATE":"2020-01-07","SITE":"AFETR","DECAY_DATE":null,"FILE":"3772909","GP_ID":"224453473","TLE_LINE0":"0 STARLINK-1098","TLE_LINE1":"1 44917U 20001D   23036.22517221  .00008799  00000-0  60888-3 0  9990","TLE_LINE2":"2 44917  53.0561  12.4917 0001619  82.4288 277.6885 15.06399845169762"},{"CCSDS_OMM_VERS":"2.0","COMMENT":"GENERATED VIA SPACE-TRACK.ORG API","CREATION_DATE":"2023-02-05T20:23:21","ORIGINATOR":"18 SPCS","OBJECT_NAME":"STARLINK-1098","OBJECT_ID":"2020-001D","CENTER_NAME":"EARTH","REF_FRAME":"TEME","TIME_SYSTEM":"UTC","MEAN_ELEMENT_THEORY":"SGP4","EPOCH":"2023-02-05T06:59:47.404896","MEAN_MOTION":"15.06402110","ECCENTRICITY":"0.00016900","INCLINATION":"53.0563","RA_OF_ASC_NODE":"12.1937","ARG_OF_PERICENTER":"80.7323","MEAN_ANOMALY":"279.3857","EPHEMERIS_TYPE":"0","CLASSIFICATION_TYPE":"U","NORAD_CAT_ID":"44917","ELEMENT_SET_NO":"999","REV_AT_EPOCH":"16977","BSTAR":"0.00093285000000","MEAN_MOTION_DOT":"0.00013641","MEAN_MOTION_DDOT":"0.0000000000000","SEMIMAJOR_AXIS":"6925.342","PERIOD":"95.592","APOAPSIS":"548.377","PERIAPSIS":"546.037","OBJECT_TYPE":"PAYLOAD","RCS_SIZE":"LARGE","COUNTRY_CODE":"US","LAUNCH_DATE":"2020-01-07","SITE":"AFETR","DECAY_DATE":null,"FILE":"3773728","GP_ID":"224490737","TLE_LINE0":"0 STARLINK-1098","TLE_LINE1":"1 44917U 20001D   23036.29152089  .00013641  00000-0  93285-3 0  9993","TLE_LINE2":"2 44917  53.0563  12.1937 0001690  80.7323 279.3857 15.06402110169772"},{"CCSDS_OMM_VERS":"2.0","COMMENT":"GENERATED VIA SPACE-TRACK.ORG API","CREATION_DATE":"2023-02-06T17:27:22","ORIGINATOR":"18 SPCS","OBJECT_NAME":"STARLINK-1098","OBJECT_ID":"2020-001D","CENTER_NAME":"EARTH","REF_FRAME":"TEME","TIME_SYSTEM":"UTC","MEAN_ELEMENT_THEORY":"SGP4","EPOCH":"2023-02-06T06:52:51.785472","MEAN_MOTION":"15.06434193","ECCENTRICITY":"0.00016310","INCLINATION":"53.0555","RA_OF_ASC_NODE":"7.7263","ARG_OF_PERICENTER":"84.3036","MEAN_ANOMALY":"275.8139","EPHEMERIS_TYPE":"0","CLASSIFICATION_TYPE":"U","NORAD_CAT_ID":"44917","ELEMENT_SET_NO":"999","REV_AT_EPOCH":"16992","BSTAR":"0.00111630000000","MEAN_MOTION_DOT":"0.00016400","MEAN_MOTION_DDOT":"0.0000000000000","SEMIMAJOR_AXIS":"6925.244","PERIOD":"95.590","APOAPSIS":"548.238","PERIAPSIS":"545.979","OBJECT_TYPE":"PAYLOAD","RCS_SIZE":"LARGE","COUNTRY_CODE":"US","LAUNCH_DATE":"2020-01-07","SITE":"AFETR","DECAY_DATE":null,"FILE":"3775254","GP_ID":"224605692","TLE_LINE0":"0 STARLINK-1098","TLE_LINE1":"1 44917U 20001D   23037.28671048  .00016400  00000-0  11163-2 0  9994","TLE_LINE2":"2 44917  53.0555   7.7263 0001631  84.3036 275.8139 15.06434193169928"},{"CCSDS_OMM_VERS":"2.0","COMMENT":"GENERATED VIA SPACE-TRACK.ORG API","CREATION_DATE":"2023-02-06T15:06:13","ORIGINATOR":"18 SPCS","OBJECT_NAME":"STARLINK-1098","OBJECT_ID":"2020-001D","CENTER_NAME":"EARTH","REF_FRAME":"TEME","TIME_SYSTEM":"UTC","MEAN_ELEMENT_THEORY":"SGP4","EPOCH":"2023-02-06T06:52:51.785472","MEAN_MOTION":"15.06434193","ECCENTRICITY":"0.00016310","INCLINATION":"53.0555","RA_OF_ASC_NODE":"7.7263","ARG_OF_PERICENTER":"84.3036","MEAN_ANOMALY":"275.8139","EPHEMERIS_TYPE":"0","CLASSIFICATION_TYPE":"U","NORAD_CAT_ID":"44917","ELEMENT_SET_NO":"999","REV_AT_EPOCH":"16992","BSTAR":"0.00111630000000","MEAN_MOTION_DOT":"0.00016400","MEAN_MOTION_DDOT":"0.0000000000000","SEMIMAJOR_AXIS":"6925.244","PERIOD":"95.590","APOAPSIS":"548.238","PERIAPSIS":"545.979","OBJECT_TYPE":"PAYLOAD","RCS_SIZE":"LARGE","COUNTRY_CODE":"US","LAUNCH_DATE":"2020-01-07","SITE":"AFETR","DECAY_DATE":null,"FILE":"3775067","GP_ID":"224582781","TLE_LINE0":"0 STARLINK-1098","TLE_LINE1":"1 44917U 20001D   23037.28671048  .00016400  00000-0  11163-2 0  9994","TLE_LINE2":"2 44917  53.0555   7.7263 0001631  84.3036 275.8139 15.06434193169928"},{"CCSDS_OMM_VERS":"2.0","COMMENT":"GENERATED VIA SPACE-TRACK.ORG API","CREATION_DATE":"2023-02-07T07:56:13","ORIGINATOR":"18 SPCS","OBJECT_NAME":"STARLINK-1098","OBJECT_ID":"2020-001D","CENTER_NAME":"EARTH","REF_FRAME":"TEME","TIME_SYSTEM":"UTC","MEAN_ELEMENT_THEORY":"SGP4","EPOCH":"2023-02-07T05:10:24.057408","MEAN_MOTION":"15.06431056","ECCENTRICITY":"0.00016760","INCLINATION":"53.0554","RA_OF_ASC_NODE":"3.5570","ARG_OF_PERICENTER":"97.3263","MEAN_ANOMALY":"262.7917","EPHEMERIS_TYPE":"0","CLASSIFICATION_TYPE":"U","NORAD_CAT_ID":"44917","ELEMENT_SET_NO":"999","REV_AT_EPOCH":"17006","BSTAR":"0.00087599000000","MEAN_MOTION_DOT":"0.00012801","MEAN_MOTION_DDOT":"0.0000000000000","SEMIMAJOR_AXIS":"6925.253","PERIOD":"95.590","APOAPSIS":"548.279","PERIAPSIS":"545.958","OBJECT_TYPE":"PAYLOAD","RCS_SIZE":"LARGE","COUNTRY_CODE":"US","LAUNCH_DATE":"2020-01-07","SITE":"AFETR","DECAY_DATE":null,"FILE":"3776467","GP_ID":"224665327","TLE_LINE0":"0 STARLINK-1098","TLE_LINE1":"1 44917U 20001D   23038.21555622  .00012801  00000-0  87599-3 0  9995","TLE_LINE2":"2 44917  53.0554   3.5570 0001676  97.3263 262.7917 15.06431056170068"},{"CCSDS_OMM_VERS":"2.0","COMMENT":"GENERATED VIA SPACE-TRACK.ORG API","CREATION_DATE":"2023-02-07T18:10:04","ORIGINATOR":"18 SPCS","OBJECT_NAME":"STARLINK-1098","OBJECT_ID":"2020-001D","CENTER_NAME":"EARTH","REF_FRAME":"TEME","TIME_SYSTEM":"UTC","MEAN_ELEMENT_THEORY":"SGP4","EPOCH":"2023-02-07T06:45:56.264544","MEAN_MOTION":"15.06436007","ECCENTRICITY":"0.00016700","INCLINATION":"53.0554","RA_OF_ASC_NODE":"3.2589","ARG_OF_PERICENTER":"97.8228","MEAN_ANOMALY":"262.2950","EPHEMERIS_TYPE":"0","CLASSIFICATION_TYPE":"U","NORAD_CAT_ID":"44917","ELEMENT_SET_NO":"999","REV_AT_EPOCH":"17007","BSTAR":"0.00108590000000","MEAN_MOTION_DOT":"0.00015946","MEAN_MOTION_DDOT":"0.0000000000000","SEMIMAJOR_AXIS":"6925.238","PERIOD":"95.590","APOAPSIS":"548.260","PERIAPSIS":"545.947","OBJECT_TYPE":"PAYLOAD","RCS_SIZE":"LARGE","COUNTRY_CODE":"US","LAUNCH_DATE":"2020-01-07","SITE":"AFETR","DECAY_DATE":null,"FILE":"3777208","GP_ID":"224702040","TLE_LINE0":"0 STARLINK-1098","TLE_LINE1":"1 44917U 20001D   23038.28190121  .00015946  00000-0  10859-2 0  9998","TLE_LINE2":"2 44917  53.0554   3.2589 0001670  97.8228 262.2950 15.06436007170079"},{"CCSDS_OMM_VERS":"2.0","COMMENT":"GENERATED VIA SPACE-TRACK.ORG API","CREATION_DATE":"2023-02-08T21:13:41","ORIGINATOR":"18 SPCS","OBJECT_NAME":"STARLINK-1098","OBJECT_ID":"2020-001D","CENTER_NAME":"EARTH","REF_FRAME":"TEME","TIME_SYSTEM":"UTC","MEAN_ELEMENT_THEORY":"SGP4","EPOCH":"2023-02-08T06:39:02.042208","MEAN_MOTION":"15.06414606","ECCENTRICITY":"0.00018570","INCLINATION":"53.0550","RA_OF_ASC_NODE":"358.7898","ARG_OF_PERICENTER":"105.5026","MEAN_ANOMALY":"254.6168","EPHEMERIS_TYPE":"0","CLASSIFICATION_TYPE":"U","NORAD_CAT_ID":"44917","ELEMENT_SET_NO":"999","REV_AT_EPOCH":"17022","BSTAR":"0.00095939000000","MEAN_MOTION_DOT":"0.00014043","MEAN_MOTION_DDOT":"0.0000000000000","SEMIMAJOR_AXIS":"6925.304","PERIOD":"95.591","APOAPSIS":"548.455","PERIAPSIS":"545.883","OBJECT_TYPE":"PAYLOAD","RCS_SIZE":"LARGE","COUNTRY_CODE":"US","LAUNCH_DATE":"2020-01-07","SITE":"AFETR","DECAY_DATE":null,"FILE":"3780324","GP_ID":"224819258","TLE_LINE0":"0 STARLINK-1098","TLE_LINE1":"1 44917U 20001D   23039.27710697  .00014043  00000-0  95939-3 0  9994","TLE_LINE2":"2 44917  53.0550 358.7898 0001857 105.5026 254.6168 15.06414606170220"}]